[{"OBJECT_NAME":"STARLINK-31698","OBJECT_ID":"2024-062F","EPOCH":"2026-03-09T19:58:40.732032","MEAN_MOTION":15.30183968,"ECCENTRICITY":0.00012569,"INCLINATION":53.1603,"RA_OF_ASC_NODE":254.9886,"ARG_OF_PERICENTER":88.3549,"MEAN_ANOMALY":271.7596,"EPHEMERIS_TYPE":0,"CLASSIFICATION_TYPE":"U","NORAD_CAT_ID":59379,"ELEMENT_SET_NO":999,"REV_AT_EPOCH":10965,"BSTAR":9.91931e-6,"MEAN_MOTION_DOT":-6.5e-7,"MEAN_MOTION_DDOT":0},{"OBJECT_NAME":"FENGYUN 1C DEB","OBJECT_ID":"1999-025DFQ","EPOCH":"2026-03-09T11:05:09.183840","MEAN_MOTION":15.08584918,"ECCENTRICITY":0.01333512,"INCLINATION":99.3393,"RA_OF_ASC_NODE":158.3034,"ARG_OF_PERICENTER":18.9579,"MEAN_ANOMALY":341.654,"EPHEMERIS_TYPE":0,"CLASSIFICATION_TYPE":"U","NORAD_CAT_ID":33679,"ELEMENT_SET_NO":999,"REV_AT_EPOCH":95428,"BSTAR":0.0014594523,"MEAN_MOTION_DOT":0.00028083,"MEAN_MOTION_DDOT":0}]
